[{"OBJECT_NAME":"STARLINK-3107","OBJECT_ID":"2021-082AT","EPOCH":"2026-03-09T21:59:27.140640","MEAN_MOTION":15.10504087,"ECCENTRICITY":0.00073375,"INCLINATION":69.9932,"RA_OF_ASC_NODE":287.3824,"ARG_OF_PERICENTER":250.2407,"MEAN_ANOMALY":109.7967,"EPHEMERIS_TYPE":0,"CLASSIFICATION_TYPE":"U","NORAD_CAT_ID":49171,"ELEMENT_SET_NO":999,"REV_AT_EPOCH":24733,"BSTAR":0.001517345,"MEAN_MOTION_DOT":0.00025048,"MEAN_MOTION_DDOT":0},{"OBJECT_NAME":"STARLINK-3327","OBJECT_ID":"2022-001S","EPOCH":"2026-03-09T12:05:46.759488","MEAN_MOTION":15.08832182,"ECCENTRICITY":0.00011989,"INCLINATION":53.2163,"RA_OF_ASC_NODE":169.9554,"ARG_OF_PERICENTER":79.0634,"MEAN_ANOMALY":281.0493,"EPHEMERIS_TYPE":0,"CLASSIFICATION_TYPE":"U","NORAD_CAT_ID":50819,"ELEMENT_SET_NO":999,"REV_AT_EPOCH":23038,"BSTAR":-5.7204801e-5,"MEAN_MOTION_DOT":-1.198e-5,"MEAN_MOTION_DDOT":0}]
